
685 
FTUS45 KBOU 090806 AAA
TAFDEN
TAF AMD
KDEN 090806Z 0908/1012 18011KT P6SM SKC
     FM091600 VRB05KT P6SM FEW120 FEW220
     FM092000 02008KT P6SM FEW120 BKN220
     FM100100 06010KT P6SM SCT100 BKN150
     FM100400 09010KT P6SM SCT080 BKN120
     FM100900 04010KT P6SM BKN050 BKN080=

