
741 
SAXX60 KWBC 292200
METAR
KRSP 292154Z AUTO 31007KT 240V350 10SM FEW080 M06/M17 A2991 RMK
     AO2 SLP163 T10611167 $=


065 
SAXX60 KWBC 292200
METAR
KAMW 292153Z AUTO 32010G57KT 290V030 10SM CLR M04/M15 A2998 RMK AO2
     SLP177 T10441150 $=


373 
SAUS70 KWBC 292200
METAR
PASP 292148Z 00000KT 15SM BKN060 M05/M08 A3011 RMK ESTIMATED PASS
     OPEN NOSPECI=


795 
SAUS70 KWBC 292200
METAR
KMQI 292145Z AUTO 29005KT 10SM CLR 02/M11 A3012 RMK AO2=
KBQP 292146Z AUTO 20003KT 10SM CLR 08/M03 A3020 RMK AO2=


