
776 
SAUS70 KWBC 051400
METAR
RJSK 112305Z 22012KT 10SM FEW070 SCT100 BKN170 25/12 A2987 RMK AO2
     SLP116 ACSL OMTNS N T02520122 10072 20044 57031=

